{"timestamp": "2025-03-02T19:01:21.608120", "data": [ {"OBJECT_NAME": "BEIDOU-2 IGSO-6 (C13)", "OBJECT_ID": "2016-021A", "EPOCH": "2025-02-28T22:02:44.912832", "MEAN_MOTION": 1.00264413, "ECCENTRICITY": 0.0053911, "INCLINATION": 59.5592, "RA_OF_ASC_NODE": 42.761, "ARG_OF_PERICENTER": 230.0103, "MEAN_ANOMALY": 312.6737, "EPHEMERIS_TYPE": 0, "CLASSIFICATION_TYPE": "U", "NORAD_CAT_ID": 41434, "ELEMENT_SET_NO": 999, "REV_AT_EPOCH": 3272, "BSTAR": 0, "MEAN_MOTION_DOT": -1.34e-06, "MEAN_MOTION_DDOT": 0, "line1": "1 41434U 16021A   25059.91857538 -.00000134  00000+0  00000+0 0  9990", "line2": "2 41434  59.5592  42.7610 0053911 230.0103 312.6737  1.00264413 32725"}, {"OBJECT_NAME": "IRNSS-1G", "OBJECT_ID": "2016-027A", "EPOCH": "2025-03-02T07:56:06.537408", "MEAN_MOTION": 1.00265593, "ECCENTRICITY": 0.000577, "INCLINATION": 4.0422, "RA_OF_ASC_NODE": 110.1535, "ARG_OF_PERICENTER": 320.6603, "MEAN_ANOMALY": 337.98, "EPHEMERIS_TYPE": 0, "CLASSIFICATION_TYPE": "U", "NORAD_CAT_ID": 41469, "ELEMENT_SET_NO": 999, "REV_AT_EPOCH": 3244, "BSTAR": 0, "MEAN_MOTION_DOT": -3.37e-06, "MEAN_MOTION_DDOT": 0, "line1": "1 41469U 16027A   25061.33063122 -.00000337  00000+0  00000+0 0  9996", "line2": "2 41469   4.0422 110.1535 0005770 320.6603 337.9800  1.00265593 32447"}, {"OBJECT_NAME": "GSAT0211 (GALILEO 14)", "OBJECT_ID": "2016-030A", "EPOCH": "2025-03-01T00:13:13.687680", "MEAN_MOTION": 1.70473594, "ECCENTRICITY": 0.0003585, "INCLINATION": 55.2585, "RA_OF_ASC_NODE": 234.7065, "ARG_OF_PERICENTER": 25.6327, "MEAN_ANOMALY": 334.349, "EPHEMERIS_TYPE": 0, "CLASSIFICATION_TYPE": "U", "NORAD_CAT_ID": 41549, "ELEMENT_SET_NO": 999, "REV_AT_EPOCH": 5460, "BSTAR": 0, "MEAN_MOTION_DOT": 5.1e-07, "MEAN_MOTION_DDOT": 0, "line1": "1 41549U 16030A   25060.00918620  .00000051  00000+0  00000+0 0  9996", "line2": "2 41549  55.2585 234.7065 0003585  25.6327 334.3490  1.70473594 54609"}, {"OBJECT_NAME": "GSAT0210 (GALILEO 13)", "OBJECT_ID": "2016-030B", "EPOCH": "2025-03-01T20:29:07.853568", "MEAN_MOTION": 1.70473765, "ECCENTRICITY": 0.000112, "INCLINATION": 55.2576, "RA_OF_ASC_NODE": 234.6814, "ARG_OF_PERICENTER": 166.5482, "MEAN_ANOMALY": 193.4156, "EPHEMERIS_TYPE": 0, "CLASSIFICATION_TYPE": "U", "NORAD_CAT_ID": 41550, "ELEMENT_SET_NO": 999, "REV_AT_EPOCH": 5459, "BSTAR": 0, "MEAN_MOTION_DOT": 4.9e-07, "MEAN_MOTION_DDOT": 0, "line1": "1 41550U 16030B   25060.85356312  .00000049  00000+0  00000+0 0  9992", "line2": "2 41550  55.2576 234.6814 0001120 166.5482 193.4156  1.70473765 54593"}, {"OBJECT_NAME": "BEIDOU-2 G7 (C03)", "OBJECT_ID": "2016-037A", "EPOCH": "2025-03-01T23:50:08.622240", "MEAN_MOTION": 1.00274187, "ECCENTRICITY": 0.0010272, "INCLINATION": 1.5022, "RA_OF_ASC_NODE": 67.3381, "ARG_OF_PERICENTER": 332.2925, "MEAN_ANOMALY": 228.4619, "EPHEMERIS_TYPE": 0, "CLASSIFICATION_TYPE": "U", "NORAD_CAT_ID": 41586, "ELEMENT_SET_NO": 999, "REV_AT_EPOCH": 3204, "BSTAR": 0, "MEAN_MOTION_DOT": -3.56e-06, "MEAN_MOTION_DDOT": 0, "line1": "1 41586U 16037A   25060.99315535 -.00000356  00000+0  00000+0 0  9997", "line2": "2 41586   1.5022  67.3381 0010272 332.2925 228.4619  1.00274187 32043"}, {"OBJECT_NAME": "E 117 W B (WAAS/PRN 131)", "OBJECT_ID": "2016-038B", "EPOCH": "2025-03-01T14:44:16.085184", "MEAN_MOTION": 1.00271982, "ECCENTRICITY": 6.9e-06, "INCLINATION": 0.0152, "RA_OF_ASC_NODE": 302.516, "ARG_OF_PERICENTER": 34.8703, "MEAN_ANOMALY": 286.3242, "EPHEMERIS_TYPE": 0, "CLASSIFICATION_TYPE": "U", "NORAD_CAT_ID": 41589, "ELEMENT_SET_NO": 999, "REV_AT_EPOCH": 3192, "BSTAR": 0, "MEAN_MOTION_DOT": -1.4e-07, "MEAN_MOTION_DDOT": 0, "line1": "1 41589U 16038B   25060.61407506 -.00000014  00000+0  00000+0 0  9991", "line2": "2 41589   0.0152 302.5160 0000069  34.8703 286.3242  1.00271982 31926"}, {"OBJECT_NAME": "GSAT0207 (GALILEO 15)", "OBJECT_ID": "2016-069A", "EPOCH": "2025-02-27T18:51:51.312384", "MEAN_MOTION": 1.70474543, "ECCENTRICITY": 0.0004913, "INCLINATION": 55.2144, "RA_OF_ASC_NODE": 114.2277, "ARG_OF_PERICENTER": 298.1375, "MEAN_ANOMALY": 61.9061, "EPHEMERIS_TYPE": 0, "CLASSIFICATION_TYPE": "U", "NORAD_CAT_ID": 41859, "ELEMENT_SET_NO": 999, "REV_AT_EPOCH": 5131, "BSTAR": 0, "MEAN_MOTION_DOT": 2.9e-07, "MEAN_MOTION_DDOT": 0, "line1": "1 41859U 16069A   25058.78601056  .00000029  00000+0  00000+0 0  9991", "line2": "2 41859  55.2144 114.2277 0004913 298.1375  61.9061  1.70474543 51314"}, {"OBJECT_NAME": "GSAT0212 (GALILEO 16)", "OBJECT_ID": "2016-069B", "EPOCH": "2025-02-28T05:26:17.352672", "MEAN_MOTION": 1.7047474, "ECCENTRICITY": 0.0003131, "INCLINATION": 55.2123, "RA_OF_ASC_NODE": 114.2113, "ARG_OF_PERICENTER": 323.0873, "MEAN_ANOMALY": 36.9851, "EPHEMERIS_TYPE": 0, "CLASSIFICATION_TYPE": "U", "NORAD_CAT_ID": 41860, "ELEMENT_SET_NO": 999, "REV_AT_EPOCH": 5157, "BSTAR": 0, "MEAN_MOTION_DOT": 3e-07, "MEAN_MOTION_DDOT": 0, "line1": "1 41860U 16069B   25059.22658973  .00000030  00000+0  00000+0 0  9995", "line2": "2 41860  55.2123 114.2113 0003131 323.0873  36.9851  1.70474740 51570"}, {"OBJECT_NAME": "GSAT0213 (GALILEO 17)", "OBJECT_ID": "2016-069C", "EPOCH": "2025-03-01T04:21:05.642784", "MEAN_MOTION": 1.7047496, "ECCENTRICITY": 0.0005129, "INCLINATION": 55.2151, "RA_OF_ASC_NODE": 114.192, "ARG_OF_PERICENTER": 281.3464, "MEAN_ANOMALY": 78.6895, "EPHEMERIS_TYPE": 0, "CLASSIFICATION_TYPE": "U", "NORAD_CAT_ID": 41861, "ELEMENT_SET_NO": 999, "REV_AT_EPOCH": 5145, "BSTAR": 0, "MEAN_MOTION_DOT": 2.9e-07, "MEAN_MOTION_DDOT": 0, "line1": "1 41861U 16069C   25060.18131531  .00000029  00000+0  00000+0 0  9997", "line2": "2 41861  55.2151 114.1920 0005129 281.3464  78.6895  1.70474960 51450"}, {"OBJECT_NAME": "GSAT0214 (GALILEO 18)", "OBJECT_ID": "2016-069D", "EPOCH": "2025-02-26T23:31:55.068672", "MEAN_MOTION": 1.70474903, "ECCENTRICITY": 0.0004399, "INCLINATION": 55.213, "RA_OF_ASC_NODE": 114.2462, "ARG_OF_PERICENTER": 281.0682, "MEAN_ANOMALY": 78.973, "EPHEMERIS_TYPE": 0, "CLASSIFICATION_TYPE": "U", "NORAD_CAT_ID": 41862, "ELEMENT_SET_NO": 999, "REV_AT_EPOCH": 5154, "BSTAR": 0, "MEAN_MOTION_DOT": 2.6e-07, "MEAN_MOTION_DDOT": 0, "line1": "1 41862U 16069D   25057.98049848  .00000026  00000+0  00000+0 0  9998", "line2": "2 41862  55.2130 114.2462 0004399 281.0682  78.9730  1.70474903 51545"}, {"OBJECT_NAME": "SES-15 (WAAS/PRN 133)", "OBJECT_ID": "2017-026A", "EPOCH": "2025-03-02T07:15:58.508064", "MEAN_MOTION": 1.00274805, "ECCENTRICITY": 6.78e-05, "INCLINATION": 0.032, "RA_OF_ASC_NODE": 68.6831, "ARG_OF_PERICENTER": 253.5294, "MEAN_ANOMALY": 177.9575, "EPHEMERIS_TYPE": 0, "CLASSIFICATION_TYPE": "U", "NORAD_CAT_ID": 42709, "ELEMENT_SET_NO": 999, "REV_AT_EPOCH": 2945, "BSTAR": 0, "MEAN_MOTION_DOT": 5.7e-07, "MEAN_MOTION_DDOT": 0, "line1": "1 42709U 17026A   25061.30276051  .00000057  00000+0  00000+0 0  9996", "line2": "2 42709   0.0320  68.6831 0000678 253.5294 177.9575  1.00274805 29450"}, {"OBJECT_NAME": "QZS-2 (QZSS/PRN 194)", "OBJECT_ID": "2017-028A", "EPOCH": "2025-02-28T05:50:55.755168", "MEAN_MOTION": 1.00264452, "ECCENTRICITY": 0.0746165, "INCLINATION": 40.1655, "RA_OF_ASC_NODE": 250.054, "ARG_OF_PERICENTER": 270.249, "MEAN_ANOMALY": 227.1313, "EPHEMERIS_TYPE": 0, "CLASSIFICATION_TYPE": "U", "NORAD_CAT_ID": 42738, "ELEMENT_SET_NO": 999, "REV_AT_EPOCH": 287, "BSTAR": 0, "MEAN_MOTION_DOT": -1.13e-06, "MEAN_MOTION_DDOT": 0, "line1": "1 42738U 17028A   25059.24370087 -.00000113  00000+0  00000+0 0  9998", "line2": "2 42738  40.1655 250.0540 0746165 270.2490 227.1313  1.00264452  2876"}, {"OBJECT_NAME": "QZS-3 (QZSS/PRN 199)", "OBJECT_ID": "2017-048A", "EPOCH": "2025-03-01T23:54:53.868384", "MEAN_MOTION": 1.00274556, "ECCENTRICITY": 0.0002408, "INCLINATION": 0.0538, "RA_OF_ASC_NODE": 173.6871, "ARG_OF_PERICENTER": 172.1994, "MEAN_ANOMALY": 299.8487, "EPHEMERIS_TYPE": 0, "CLASSIFICATION_TYPE": "U", "NORAD_CAT_ID": 42917, "ELEMENT_SET_NO": 999, "REV_AT_EPOCH": 2763, "BSTAR": 0, "MEAN_MOTION_DOT": -3.51e-06, "MEAN_MOTION_DDOT": 0, "line1": "1 42917U 17048A   25060.99645681 -.00000351  00000+0  00000+0 0  9992", "line2": "2 42917   0.0538 173.6871 0002408 172.1994 299.8487  1.00274556 27636"}, {"OBJECT_NAME": "COSMOS 2522 (752)", "OBJECT_ID": "2017-055A", "EPOCH": "2025-03-01T13:53:52.063584", "MEAN_MOTION": 2.13101737, "ECCENTRICITY": 0.000654, "INCLINATION": 64.0799, "RA_OF_ASC_NODE": 207.9765, "ARG_OF_PERICENTER": 228.3396, "MEAN_ANOMALY": 131.5674, "EPHEMERIS_TYPE": 0, "CLASSIFICATION_TYPE": "U", "NORAD_CAT_ID": 42939, "ELEMENT_SET_NO": 999, "REV_AT_EPOCH": 5790, "BSTAR": 0, "MEAN_MOTION_DOT": 5e-07, "MEAN_MOTION_DDOT": 0, "line1": "1 42939U 17055A   25060.57907481  .00000050  00000+0  00000+0 0  9992", "line2": "2 42939  64.0799 207.9765 0006540 228.3396 131.5674  2.13101737 57901"}, {"OBJECT_NAME": "QZS-4 (QZSS/PRN 195)", "OBJECT_ID": "2017-062A", "EPOCH": "2025-03-02T12:05:07.869984", "MEAN_MOTION": 1.00281358, "ECCENTRICITY": 0.074901, "INCLINATION": 40.3852, "RA_OF_ASC_NODE": 349.5035, "ARG_OF_PERICENTER": 269.6102, "MEAN_ANOMALY": 222.4841, "EPHEMERIS_TYPE": 0, "CLASSIFICATION_TYPE": "U", "NORAD_CAT_ID": 42965, "ELEMENT_SET_NO": 999, "REV_AT_EPOCH": 2707, "BSTAR": 0, "MEAN_MOTION_DOT": -3.1e-06, "MEAN_MOTION_DDOT": 0, "line1": "1 42965U 17062A   25061.50356331 -.00000310  00000+0  00000+0 0  9995", "line2": "2 42965  40.3852 349.5035 0749010 269.6102 222.4841  1.00281358 27073"}, {"OBJECT_NAME": "BEIDOU-3 M1 (C19)", "OBJECT_ID": "2017-069A", "EPOCH": "2025-03-02T03:36:01.210464", "MEAN_MOTION": 1.86231046, "ECCENTRICITY": 0.0012239, "INCLINATION": 56.2778, "RA_OF_ASC_NODE": 78.6824, "ARG_OF_PERICENTER": 302.8324, "MEAN_ANOMALY": 57.1017, "EPHEMERIS_TYPE": 0, "CLASSIFICATION_TYPE": "U", "NORAD_CAT_ID": 43001, "ELEMENT_SET_NO": 999, "REV_AT_EPOCH": 4981, "BSTAR": 0, "MEAN_MOTION_DOT": 1.2e-07, "MEAN_MOTION_DDOT": 0, "line1": "1 43001U 17069A   25061.15001401  .00000012  00000+0  00000+0 0  9998", "line2": "2 43001  56.2778  78.6824 0012239 302.8324  57.1017  1.86231046 49813"}]}